0 THOR ABLESTAR DEB
1 05786U 61015KA  13280.99386640  .00000544  00000-0  42325-3 0   632
2 05786 067.1223 110.3779 0127042 122.1724 313.9635 13.95830370626623
0 THOR ABLESTAR DEB
1 05786U 61015KA  13284.15463256  .00000685  00000-0  51917-3 0   647
2 05786 067.1225 102.6959 0126893 119.6594 356.8909 13.95835854627069
0 THOR ABLESTAR DEB
1 05786U 61015KA  13286.58210582  .00000568  00000-0  43969-3 0   657
2 05786 067.1229 096.7957 0126749 117.7250 315.0440 13.95839854627401
0 THOR ABLESTAR DEB
1 05786U 61015KA  13290.10016037  .00000700  00000-0  52945-3 0   662
2 05786 067.1236 088.2453 0126585 114.8965 353.5051 13.95845972627891
0 THOR ABLESTAR DEB
1 05786U 61015KA  13294.83854273  .00000909  00000-0  67256-3 0   671
2 05786 067.1242 076.7297 0126296 111.1207 044.3088 13.95855162628555
